<?xml version="1.0" encoding="UTF-8"?>
<gpx xmlns="http://www.topografix.com/GPX/1/1" creator="RouteYou" version="1.1" xmlns:xsi="http://www.w3.org/2001/XMLSchema-instance" xsi:schemaLocation="http://www.topografix.com/GPX/1/1 http://www.topografix.com/GPX/1/1/gpx.xsd">
  <wpt lat="46.61528" lon="5.90306">
    <name>Pic de l'Aigle</name>
    <desc>Le pic de l'Aigle est un sommet du massif du Jura culminant à 998 mètres. Il est situé dans le département du Jura, sur la commune de la Chaux-du-Dombief. Il domine la vallée des 4 lacs et offre un panorama sur la chaîne du Jura, et sur le mont Blanc par temps clair.Le pic de l'Aigle marque la bordure occidentale de la Haute-Chaîne du massif du Jura, il est situé sur un pli synclinal qui chevauche le synclinal des lacs situés à l'ouest. La structure du pic est découpée par trois failles : le chevauchement d'Ilay, le chevauchement du pic de l'Aigle et le chevauchement de La Chaux-du-Dombief. La géométrie de ces chevauchements indique une compression qui s'exerce dans un sens est-ouest.&lt;br/&gt;&lt;br/&gt;Auteur: &lt;a href="https://www.routeyou.com/user/view/165089.fr"&gt;Wikipedia&lt;/a&gt;&lt;br/&gt;&lt;a href="https://www.routeyou.com/location/view/47838423.fr?toptext=1300917"&gt;De plus amples informations&lt;/a&gt;</desc>
    <type>Montagne</type>
  </wpt>
  <wpt lat="46.61792" lon="5.90494">
    <name>Le pic de l'Aigle</name>
    <desc>Le belvédère du Pic de l'Aigle à Chaux-du-Dombief offre de magnifiques points de vues sur le Jura, la vallée du Hérisson, sur le Grandvaux et sur le lac d'Ilay.

Par temps clair, vous pourrez apercevoir le massif du Mont Blanc.

Une table d'orientation aménagée au sommet vous permettra de lire le panorama à 360°.

Pour accéder au pic de l'Aigle : 
- 3 stationnements dans la commune de La Chaux-du-Dombief : P1 , parking partagé avec l'usine NAJA, très spacieux, plat et bitumé ; P2, parking au départ du sentier du pic, naturel ; P3 à proximité du P2 et plus limité. 
A partir du parking haut du pic de l'Aigle (parking P2), le pic de l'Aigle est indiqué par le sentier de randonnée. 

Quelques conseils pour une découverte du site en toute sérénité : 
- Ne surestimez pas vos forces, prenez garde au dénivelé et à la nature du site : il s'agit d'une randonnée en moyenne montagne
- Equipez-vous correctement (chaussures de marche, vêtements appropriés à la météo, sac avec eau &amp;amp; encas) 
- Restez sur les sentiers balisés
- Tenez vos animaux en laisse
- Gardez de la distance entre vous/vos enfants et le vide
- Respectez la beauté et la tranquilité du site : soyez le plus discret.e possible, remportez vos déchets et laissez les fleurs sauvages pour le regard des futur.e.s promeneur.euse.s.  
- Afin de garantir la beauté paysagère du site, peu de poubelles sont installées sur l'itinéraire. Nous comptons sur votre responsabilité pour remporter vos détritus et participer à la préservation du site. Par avance, merci. 

Durée approximative : 
Aller-retour Parking du pic de l'Aigle / Pic de l'Aigle : 1h.

Vous pourrez prolonger la randonnée par la crête pour accéder au belvédère des 3 lacs puis au belvédère des 4 lacs : Suivre le balisage jaune. 
Le retour depuis le belvédère des 4 lacs s'effectue : 

- par la route forestière du Bois de Ban puis les pâturages : suivre la direction "retour parking du pic". 
Soyez prudent.e : promeneur.euse et voitures partagent la chaussée. 
Durée approximative : 
Aller-retour Parking du pic de l'Aigle / Belvédère des 4 lacs : 2h30.
- par la descente au bord des lacs des Maclu puis le lac d'Ilay : suivre le balisage et les panneaux directionnels. 
Cette boucle, plus longue, s'adresse aux randonneurs aguerris. 
Durée approximative Parking du pic de l'Aigle / belvédère des 4 lacs / Les lacs : 3h30, distance : 10 km, dénivelé : 330m.

Des cartes de randonnée sont disponibles à  l'office de tourisme Haut-Jura Grandvaux à Saint-Laurent en Grandvaux. 
Les différentes versions des itinéraires sont à consulter et télécharger sur les sites internet et appli Jura-outdoor et Haut-Jura Rando.&lt;br/&gt;&lt;br/&gt;Auteur: &lt;a href="https://www.routeyou.com/user/view/2215474.fr"&gt;OFFICE DE TOURISME HAUT-JURA GRANDVAUX&lt;/a&gt;&lt;br/&gt;&lt;a href="https://www.routeyou.com/location/view/51103138.fr?toptext=7439921"&gt;De plus amples informations&lt;/a&gt;</desc>
    <type>Élément de paysage</type>
  </wpt>
  <wpt lat="46.62425" lon="5.91044">
    <name>Le belvédère des 4 Lacs</name>
    <desc>Le site des 4 lacs du Jura se compose des lacs d’Ilay, Narlay, Petit et Grand Maclu. C’est un site naturel exceptionnel souvent surnommé "La petite Écosse" en référence à une citation de Charles Nodier. Ces lacs d'origine glaciaire, aux eaux profondes et claires, composent des paysages magnifiques qui varient au fil des saisons.

Dominé par le Pic de l'Aigle, un crêt culminant à 993 mètres, ce site offre un panorama spectaculaire à 360° sur le plateau des 4 lacs et les montagnes du Jura. À quelques centaines de mètres du Pic de l’Aigle, le Belvédère des 4 lacs, accessible à pied ou en voiture, est un autre point de vue incontournable pour admirer l'ensemble du paysage.

Parmi ces 4 lacs, Narlay se distingue par sa profondeur de 48 mètres, ce qui lui a valu le surnom de lac noir, tandis qu'Ilay, aussi appelé lac de la Motte, abrite une île dont l'occupation remonte au Néolithique.

Le secteur des 4 lacs est idéal pour la pratique de la randonnée pédestre (tour des 3 lacs et des 4 lacs), du VTT (tour des 5 lacs) et du cyclisme (boucle 12 et 6), avec plusieurs sentiers balisés permettant de découvrir les lacs et leurs environs. Ce sont également des lacs agréables pour la pratique de la pêche depuis les berges ou en barque (carte de pêche obligatoire). Dans un souci de préservation de cet environnement fragile, la baignade est interdite dans les 4 lacs.

Site remarquable, classé Natura 2000 et site Ramsar « Tourbières et lacs de la montagne jurassienne », le site des 4 lacs accueille de très nombreux visiteurs. Pour préserver l’équilibre du site et ses patrimoines naturels, une zone de tranquillité volontaire est instaurée du 15 avril au 15 septembre (en marron sur la carte). Elle permet de limiter le dérangement des espèces animales en période de reproduction et d’élevage des jeunes, d’empêcher le piétinement, et de préserver la quiétude des différents milieux naturels. 

Merci de respecter les lieux et de nous aider à préserver l’environnement pour cela : restez sur les sentiers balisés, tenez votre chien en laisse, ne cueillez pas les fleurs, ne faites pas de feu, ne vous baignez pas, et nous rappelons que le camping et le bivouac sont interdits sur tout le secteur.

Pour profiter pleinement de ce site exceptionnel, il est recommandé de visiter en automne ou en hiver, périodes où la fréquentation est moindre et où les paysages revêtent des couleurs particulièrement enchanteresses. Le secteur des 4 lacs s'inscrit dans la région du "pays des lacs" du Jura, offrant de nombreuses possibilités d'exploration et de découverte des environs, notamment la Vallée du Hérisson toute proche. Les amateurs de baignade, quant à eux, sont invités à rejoindre les lacs de Clairvaux, Chalain ou Vouglans pour en profiter pleinement.&lt;br/&gt;&lt;br/&gt;Auteur: &lt;a href="https://www.routeyou.com/user/view/2215474.fr"&gt;OFFICE DE TOURISME HAUT-JURA GRANDVAUX&lt;/a&gt;&lt;br/&gt;&lt;a href="https://www.routeyou.com/location/view/51103139.fr?toptext=7439922"&gt;De plus amples informations&lt;/a&gt;</desc>
    <type>Élément de paysage</type>
  </wpt>
  <wpt lat="46.61461" lon="5.90201">
    <name>Pic de l'Aigle</name>
    <desc>&lt;p&gt;Le point de vue Pic de l'Aigle (991 mètres) dispose d'une table d'orientation offrant une vue magnifique.&lt;/p&gt;&lt;br/&gt;&lt;br/&gt;Auteur: &lt;a href="https://www.routeyou.com/user/view/620258.fr"&gt;Avontuurlijke Wandelingen&lt;/a&gt;&lt;br/&gt;&lt;a href="https://www.routeyou.com/location/view/52331552.fr?toptext=8766768"&gt;De plus amples informations&lt;/a&gt;</desc>
    <type>Sommet </type>
  </wpt>
  <wpt lat="46.62614" lon="5.9133">
    <name>Belvédère des 4 lacs</name>
    <desc>&lt;p&gt;Belvédère des 4 lacs&lt;/p&gt;&lt;br/&gt;&lt;br/&gt;Auteur: &lt;a href="https://www.routeyou.com/user/view/620258.fr"&gt;Avontuurlijke Wandelingen&lt;/a&gt;&lt;br/&gt;&lt;a href="https://www.routeyou.com/location/view/52331553.fr?toptext=8766769"&gt;De plus amples informations&lt;/a&gt;</desc>
    <type>Point de vue</type>
  </wpt>
  <wpt lat="46.61015" lon="5.90458">
    <name>Parking Pic de l'Aigle</name>
    <desc>&lt;p&gt;Parking Pic de l'Aigle&lt;/p&gt;

&lt;p&gt;Également adapté aux camping-cars&lt;/p&gt;&lt;br/&gt;&lt;br/&gt;Auteur: &lt;a href="https://www.routeyou.com/user/view/620258.fr"&gt;Avontuurlijke Wandelingen&lt;/a&gt;&lt;br/&gt;&lt;a href="https://www.routeyou.com/location/view/52331554.fr?toptext=8766770"&gt;De plus amples informations&lt;/a&gt;</desc>
    <type>Parking</type>
  </wpt>
  <wpt lat="46.63167" lon="5.91579">
    <name>4 lacs</name>
    <desc>La « Petite Écosse du Jura » ? C’est la somptueuse région des « 4 lacs » qui, sur un périmètre intimiste, réunit les plans d’eau du Grand et du Petit-Maclu, d’Ilay et de Narlay (site Natura 2000 et lac le plus profond du Jura), bordés de milieux humides exceptionnels. 

Une parenthèse de fraîcheur… et une vue à couper le souffle du haut du belvédère éponyme. Un véritable coin de paradis pour quiconque souhaite se balader ou contempler la biodiversité remarquable qui s’y trouve.

Suite à un arrêté municipal, la baignade y est interdite jusqu'à une date à définir.

Randonnées n°53 et 54 du Topo pédestre Champagnole Nozeroy Jura.&lt;br/&gt;&lt;br/&gt;Auteur: &lt;a href="https://www.routeyou.com/user/view/564548.fr"&gt;DATAtourisme France&lt;/a&gt;&lt;br/&gt;&lt;a href="https://www.routeyou.com/location/view/52361601.fr?toptext=8799297"&gt;De plus amples informations&lt;/a&gt;</desc>
    <type>Lac</type>
  </wpt>
  <wpt lat="46.6153" lon="5.89087">
    <name>Les Cachettes du Hérisson - Le Choupisson</name>
    <desc>Bienvenue aux Cachettes du Hérisson ! 

Ce charmant chalet de plain pied, entièrement rénové en alliant modernité et authenticité jurassienne, abrite 2 gîtes totalement indépendants : le Choupisson et le Hérissonneau… 

Ici, nous vous présentons le Choupisson : il saura vous séduire grâce à son poêle à bois et sa décoration tout en convivialité ! 

Ce gîte est composé d’une cuisine toute équipée ouverte sur séjour et d’une chambre avec lit double 160cm. Un canapé convertible dans le séjour permet d’accueillir 2 personnes supplémentaires, soit une capacité maximale de 4 personnes. Nos amis à 4 pattes sont également les bienvenus et profiteront de l’extérieur entièrement cloturé !

Sa localisation en pleine nature est idéale, permettant de profiter du calme tout en étant proche des activités typiques et des commerces : 
- Activités : à 500m du haut des fameuses Cascades Du Hérisson, accès direct aux GRs du Tour des 4 Lacs et du Pic de l'Aigle qui passent juste devant, à 10 minutes en voiture des pistes de ski de fond et à 30 minutes de la Station de ski des Rousses! 
- Pour manger : le Restaurant l'Eolienne, qui propose des plats typiquement jurassiens toute en modernité, est à la porte d'à côté : vous pouvez presque y aller en chaussons ;) ! À 500m, vous trouverez La Trattoria des Cascades avec des pizzas délicieuses mélangeant saveurs italiennes et jurassiennes !
- Commerces : à 500m, vous retrouverez la Boissellerie du Hérisson et ses innombrables objets en bois ainsi que Le Comptoir des Cascades, une épicerie riche en produits régionaux.

Accueil attentionné par les propriétaires !&lt;br/&gt;&lt;br/&gt;Auteur: &lt;a href="https://www.routeyou.com/user/view/564548.fr"&gt;DATAtourisme France&lt;/a&gt;&lt;br/&gt;&lt;a href="https://www.routeyou.com/location/view/52391382.fr?toptext=8835348"&gt;De plus amples informations&lt;/a&gt;</desc>
    <type>Maison de vacances</type>
  </wpt>
  <wpt lat="46.61708" lon="5.88964">
    <name>Le Pied du Pic</name>
    <desc>Gîte mitoyen des propriétaires, situé à proximité du site des 4 lacs et des cascades du Hérisson. Au rez de chaussée: hall d'entrée, lave-linge, wc indépendants. A l'étage : vaste pièce à vivre comprenant une cuisine entièrement équipée et 3 espaces détente avec canapés (dont un convertible 140cm), tv écran plat, TNT, lecteur DVD, accès internet, salle d'eau avec douche à l'italienne et wc. Chambre 1: 1 lit 2 places 160X200cm, CHAMBRE 2: 2 lit 1 place. Terrasse avec salon de jardin, barbecue. Grand terrain attenant non clos. Draps fournis. Équipement bébé à disposition. Possibilité 2 personnes suppl (contacter le propriétaire).&lt;br/&gt;&lt;br/&gt;Auteur: &lt;a href="https://www.routeyou.com/user/view/2215374.fr"&gt;JURA TOURISME (COORDINATION DECIBELLES DATA)&lt;/a&gt;&lt;br/&gt;&lt;a href="https://www.routeyou.com/location/view/52396912.fr?toptext=8842321"&gt;De plus amples informations&lt;/a&gt;</desc>
    <type>Maison de vacances</type>
  </wpt>
  <trk>
    <name>Boucle des belvédères et du pic de l'aigle</name>
    <desc>&lt;p&gt;&lt;strong&gt;BOUCLE DES BELVÉDÈRES ET DU PIC DE L'AIGLE&lt;/strong&gt;&lt;/p&gt;

&lt;p&gt;&lt;strong&gt;CARACTÉRISTIQUES :&lt;/strong&gt;&lt;/p&gt;

&lt;p&gt;Distance : 4,7 km&lt;/p&gt;

&lt;p&gt;Durée : 1 h 35 min&lt;/p&gt;

&lt;p&gt;Dénivelé positif : 171 m&lt;/p&gt;

&lt;p&gt;&lt;strong&gt;POINT DE DÉPART :&lt;/strong&gt;&lt;/p&gt;

&lt;p&gt;Parking Pic de l'Aigle P2&lt;/p&gt;

&lt;p&gt;39150 La Chaux-du-Dombief&lt;/p&gt;

&lt;p&gt;GPS : 46.6097, 5.9045&lt;/p&gt;</desc>
    <trkseg>
      <trkpt lat="46.61023" lon="5.90461">
        <ele>901</ele>
      </trkpt>
      <trkpt lat="46.61049" lon="5.90446">
        <ele>903</ele>
      </trkpt>
      <trkpt lat="46.61092" lon="5.90426">
        <ele>911</ele>
      </trkpt>
      <trkpt lat="46.6111" lon="5.90422">
        <ele>915</ele>
      </trkpt>
      <trkpt lat="46.61135" lon="5.90411">
        <ele>921</ele>
      </trkpt>
      <trkpt lat="46.6115" lon="5.90398">
        <ele>922</ele>
      </trkpt>
      <trkpt lat="46.61183" lon="5.90395">
        <ele>923</ele>
      </trkpt>
      <trkpt lat="46.61192" lon="5.9039">
        <ele>923</ele>
      </trkpt>
      <trkpt lat="46.61212" lon="5.90366">
        <ele>926</ele>
      </trkpt>
      <trkpt lat="46.61225" lon="5.90358">
        <ele>929</ele>
      </trkpt>
      <trkpt lat="46.61249" lon="5.90355">
        <ele>929</ele>
      </trkpt>
      <trkpt lat="46.61268" lon="5.90364">
        <ele>928</ele>
      </trkpt>
      <trkpt lat="46.61283" lon="5.90366">
        <ele>928</ele>
      </trkpt>
      <trkpt lat="46.61291" lon="5.9036">
        <ele>929</ele>
      </trkpt>
      <trkpt lat="46.61298" lon="5.90345">
        <ele>936</ele>
      </trkpt>
      <trkpt lat="46.61308" lon="5.90335">
        <ele>937</ele>
      </trkpt>
      <trkpt lat="46.61327" lon="5.90336">
        <ele>941</ele>
      </trkpt>
      <trkpt lat="46.61336" lon="5.90342">
        <ele>941</ele>
      </trkpt>
      <trkpt lat="46.61345" lon="5.90342">
        <ele>942</ele>
      </trkpt>
      <trkpt lat="46.6135" lon="5.90337">
        <ele>942</ele>
      </trkpt>
      <trkpt lat="46.61353" lon="5.90329">
        <ele>948</ele>
      </trkpt>
      <trkpt lat="46.61361" lon="5.90317">
        <ele>949</ele>
      </trkpt>
      <trkpt lat="46.61372" lon="5.90303">
        <ele>951</ele>
      </trkpt>
      <trkpt lat="46.6138" lon="5.90298">
        <ele>959</ele>
      </trkpt>
      <trkpt lat="46.61387" lon="5.90297">
        <ele>960</ele>
      </trkpt>
      <trkpt lat="46.61393" lon="5.90289">
        <ele>962</ele>
      </trkpt>
      <trkpt lat="46.61405" lon="5.90287">
        <ele>962</ele>
      </trkpt>
      <trkpt lat="46.61419" lon="5.90279">
        <ele>968</ele>
      </trkpt>
      <trkpt lat="46.61429" lon="5.90279">
        <ele>969</ele>
      </trkpt>
      <trkpt lat="46.61432" lon="5.90276">
        <ele>970</ele>
      </trkpt>
      <trkpt lat="46.61433" lon="5.90271">
        <ele>969</ele>
      </trkpt>
      <trkpt lat="46.61433" lon="5.90252">
        <ele>968</ele>
      </trkpt>
      <trkpt lat="46.61437" lon="5.90244">
        <ele>968</ele>
      </trkpt>
      <trkpt lat="46.6145" lon="5.90226">
        <ele>968</ele>
      </trkpt>
      <trkpt lat="46.61468" lon="5.90207">
        <ele>962</ele>
      </trkpt>
      <trkpt lat="46.61471" lon="5.90227">
        <ele>973</ele>
      </trkpt>
      <trkpt lat="46.61483" lon="5.90232">
        <ele>974</ele>
      </trkpt>
      <trkpt lat="46.61507" lon="5.9026">
        <ele>985</ele>
      </trkpt>
      <trkpt lat="46.61513" lon="5.9027">
        <ele>985</ele>
      </trkpt>
      <trkpt lat="46.61524" lon="5.90279">
        <ele>988</ele>
      </trkpt>
      <trkpt lat="46.616" lon="5.90384">
        <ele>986</ele>
      </trkpt>
      <trkpt lat="46.61622" lon="5.90411">
        <ele>984</ele>
      </trkpt>
      <trkpt lat="46.61642" lon="5.90429">
        <ele>984</ele>
      </trkpt>
      <trkpt lat="46.61658" lon="5.90437">
        <ele>983</ele>
      </trkpt>
      <trkpt lat="46.61677" lon="5.90453">
        <ele>984</ele>
      </trkpt>
      <trkpt lat="46.61688" lon="5.9048">
        <ele>984</ele>
      </trkpt>
      <trkpt lat="46.61733" lon="5.9051">
        <ele>982</ele>
      </trkpt>
      <trkpt lat="46.61746" lon="5.90522">
        <ele>980</ele>
      </trkpt>
      <trkpt lat="46.61805" lon="5.90607">
        <ele>975</ele>
      </trkpt>
      <trkpt lat="46.61826" lon="5.90632">
        <ele>971</ele>
      </trkpt>
      <trkpt lat="46.61834" lon="5.90649">
        <ele>971</ele>
      </trkpt>
      <trkpt lat="46.6186" lon="5.90697">
        <ele>969</ele>
      </trkpt>
      <trkpt lat="46.61865" lon="5.90719">
        <ele>969</ele>
      </trkpt>
      <trkpt lat="46.61875" lon="5.90746">
        <ele>970</ele>
      </trkpt>
      <trkpt lat="46.61878" lon="5.90771">
        <ele>970</ele>
      </trkpt>
      <trkpt lat="46.61879" lon="5.90815">
        <ele>971</ele>
      </trkpt>
      <trkpt lat="46.61882" lon="5.90829">
        <ele>971</ele>
      </trkpt>
      <trkpt lat="46.61891" lon="5.90841">
        <ele>971</ele>
      </trkpt>
      <trkpt lat="46.61898" lon="5.90859">
        <ele>969</ele>
      </trkpt>
      <trkpt lat="46.61908" lon="5.90875">
        <ele>969</ele>
      </trkpt>
      <trkpt lat="46.61933" lon="5.90901">
        <ele>964</ele>
      </trkpt>
      <trkpt lat="46.61952" lon="5.90925">
        <ele>958</ele>
      </trkpt>
      <trkpt lat="46.61963" lon="5.90959">
        <ele>953</ele>
      </trkpt>
      <trkpt lat="46.6198" lon="5.90955">
        <ele>953</ele>
      </trkpt>
      <trkpt lat="46.61986" lon="5.90965">
        <ele>952</ele>
      </trkpt>
      <trkpt lat="46.62" lon="5.90974">
        <ele>950</ele>
      </trkpt>
      <trkpt lat="46.62017" lon="5.9098">
        <ele>950</ele>
      </trkpt>
      <trkpt lat="46.62052" lon="5.90967">
        <ele>950</ele>
      </trkpt>
      <trkpt lat="46.62071" lon="5.90955">
        <ele>949</ele>
      </trkpt>
      <trkpt lat="46.62091" lon="5.90936">
        <ele>946</ele>
      </trkpt>
      <trkpt lat="46.62144" lon="5.90887">
        <ele>931</ele>
      </trkpt>
      <trkpt lat="46.62185" lon="5.90889">
        <ele>921</ele>
      </trkpt>
      <trkpt lat="46.62207" lon="5.90886">
        <ele>913</ele>
      </trkpt>
      <trkpt lat="46.62221" lon="5.90898">
        <ele>913</ele>
      </trkpt>
      <trkpt lat="46.62227" lon="5.90917">
        <ele>921</ele>
      </trkpt>
      <trkpt lat="46.62235" lon="5.90952">
        <ele>929</ele>
      </trkpt>
      <trkpt lat="46.62247" lon="5.90955">
        <ele>923</ele>
      </trkpt>
      <trkpt lat="46.62262" lon="5.90954">
        <ele>921</ele>
      </trkpt>
      <trkpt lat="46.62305" lon="5.90985">
        <ele>917</ele>
      </trkpt>
      <trkpt lat="46.62322" lon="5.9099">
        <ele>914</ele>
      </trkpt>
      <trkpt lat="46.62341" lon="5.90992">
        <ele>904</ele>
      </trkpt>
      <trkpt lat="46.62353" lon="5.90979">
        <ele>891</ele>
      </trkpt>
      <trkpt lat="46.62355" lon="5.90979">
        <ele>891</ele>
      </trkpt>
      <trkpt lat="46.62361" lon="5.90981">
        <ele>892</ele>
      </trkpt>
      <trkpt lat="46.62366" lon="5.90996">
        <ele>893</ele>
      </trkpt>
      <trkpt lat="46.62388" lon="5.91034">
        <ele>907</ele>
      </trkpt>
      <trkpt lat="46.62405" lon="5.91055">
        <ele>915</ele>
      </trkpt>
      <trkpt lat="46.6242" lon="5.91066">
        <ele>907</ele>
      </trkpt>
      <trkpt lat="46.62436" lon="5.91081">
        <ele>905</ele>
      </trkpt>
      <trkpt lat="46.62459" lon="5.91088">
        <ele>900</ele>
      </trkpt>
      <trkpt lat="46.62472" lon="5.91113">
        <ele>897</ele>
      </trkpt>
      <trkpt lat="46.62489" lon="5.91138">
        <ele>905</ele>
      </trkpt>
      <trkpt lat="46.62531" lon="5.91191">
        <ele>880</ele>
      </trkpt>
      <trkpt lat="46.62541" lon="5.91214">
        <ele>888</ele>
      </trkpt>
      <trkpt lat="46.62543" lon="5.9123">
        <ele>899</ele>
      </trkpt>
      <trkpt lat="46.62564" lon="5.91262">
        <ele>897</ele>
      </trkpt>
      <trkpt lat="46.62618" lon="5.9131">
        <ele>882</ele>
      </trkpt>
      <trkpt lat="46.62611" lon="5.91334">
        <ele>899</ele>
      </trkpt>
      <trkpt lat="46.62611" lon="5.91351">
        <ele>903</ele>
      </trkpt>
      <trkpt lat="46.62614" lon="5.9138">
        <ele>917</ele>
      </trkpt>
      <trkpt lat="46.62613" lon="5.91396">
        <ele>925</ele>
      </trkpt>
      <trkpt lat="46.62605" lon="5.91418">
        <ele>930</ele>
      </trkpt>
      <trkpt lat="46.626" lon="5.91433">
        <ele>933</ele>
      </trkpt>
      <trkpt lat="46.6259" lon="5.91445">
        <ele>935</ele>
      </trkpt>
      <trkpt lat="46.62554" lon="5.91468">
        <ele>938</ele>
      </trkpt>
      <trkpt lat="46.62549" lon="5.91475">
        <ele>939</ele>
      </trkpt>
      <trkpt lat="46.62539" lon="5.91479">
        <ele>940</ele>
      </trkpt>
      <trkpt lat="46.62522" lon="5.91464">
        <ele>939</ele>
      </trkpt>
      <trkpt lat="46.62497" lon="5.91407">
        <ele>937</ele>
      </trkpt>
      <trkpt lat="46.62481" lon="5.91382">
        <ele>937</ele>
      </trkpt>
      <trkpt lat="46.62461" lon="5.91365">
        <ele>938</ele>
      </trkpt>
      <trkpt lat="46.62445" lon="5.9136">
        <ele>938</ele>
      </trkpt>
      <trkpt lat="46.62401" lon="5.91355">
        <ele>942</ele>
      </trkpt>
      <trkpt lat="46.62396" lon="5.91347">
        <ele>942</ele>
      </trkpt>
      <trkpt lat="46.62396" lon="5.91334">
        <ele>943</ele>
      </trkpt>
      <trkpt lat="46.62398" lon="5.91323">
        <ele>943</ele>
      </trkpt>
      <trkpt lat="46.62417" lon="5.91272">
        <ele>937</ele>
      </trkpt>
      <trkpt lat="46.62437" lon="5.91202">
        <ele>932</ele>
      </trkpt>
      <trkpt lat="46.62439" lon="5.91146">
        <ele>926</ele>
      </trkpt>
      <trkpt lat="46.62438" lon="5.91126">
        <ele>919</ele>
      </trkpt>
      <trkpt lat="46.62436" lon="5.91116">
        <ele>919</ele>
      </trkpt>
      <trkpt lat="46.62422" lon="5.91104">
        <ele>921</ele>
      </trkpt>
      <trkpt lat="46.624" lon="5.91102">
        <ele>929</ele>
      </trkpt>
      <trkpt lat="46.62376" lon="5.91096">
        <ele>936</ele>
      </trkpt>
      <trkpt lat="46.62365" lon="5.91091">
        <ele>937</ele>
      </trkpt>
      <trkpt lat="46.62359" lon="5.91086">
        <ele>937</ele>
      </trkpt>
      <trkpt lat="46.62335" lon="5.91033">
        <ele>930</ele>
      </trkpt>
      <trkpt lat="46.62326" lon="5.91022">
        <ele>922</ele>
      </trkpt>
      <trkpt lat="46.62312" lon="5.91016">
        <ele>928</ele>
      </trkpt>
      <trkpt lat="46.62294" lon="5.91016">
        <ele>933</ele>
      </trkpt>
      <trkpt lat="46.62282" lon="5.91018">
        <ele>934</ele>
      </trkpt>
      <trkpt lat="46.62238" lon="5.91051">
        <ele>943</ele>
      </trkpt>
      <trkpt lat="46.62224" lon="5.91057">
        <ele>946</ele>
      </trkpt>
      <trkpt lat="46.62122" lon="5.91081">
        <ele>956</ele>
      </trkpt>
      <trkpt lat="46.62086" lon="5.91072">
        <ele>952</ele>
      </trkpt>
      <trkpt lat="46.62061" lon="5.91074">
        <ele>949</ele>
      </trkpt>
      <trkpt lat="46.62038" lon="5.91095">
        <ele>946</ele>
      </trkpt>
      <trkpt lat="46.61999" lon="5.9112">
        <ele>941</ele>
      </trkpt>
      <trkpt lat="46.61984" lon="5.91122">
        <ele>938</ele>
      </trkpt>
      <trkpt lat="46.61975" lon="5.91119">
        <ele>938</ele>
      </trkpt>
      <trkpt lat="46.61965" lon="5.91109">
        <ele>937</ele>
      </trkpt>
      <trkpt lat="46.61928" lon="5.91069">
        <ele>935</ele>
      </trkpt>
      <trkpt lat="46.61837" lon="5.90998">
        <ele>923</ele>
      </trkpt>
      <trkpt lat="46.61802" lon="5.90957">
        <ele>926</ele>
      </trkpt>
      <trkpt lat="46.6177" lon="5.90908">
        <ele>926</ele>
      </trkpt>
      <trkpt lat="46.61749" lon="5.90871">
        <ele>922</ele>
      </trkpt>
      <trkpt lat="46.61721" lon="5.90814">
        <ele>920</ele>
      </trkpt>
      <trkpt lat="46.61699" lon="5.90789">
        <ele>916</ele>
      </trkpt>
      <trkpt lat="46.61681" lon="5.90765">
        <ele>914</ele>
      </trkpt>
      <trkpt lat="46.61641" lon="5.90726">
        <ele>913</ele>
      </trkpt>
      <trkpt lat="46.61616" lon="5.90714">
        <ele>909</ele>
      </trkpt>
      <trkpt lat="46.61592" lon="5.9071">
        <ele>900</ele>
      </trkpt>
      <trkpt lat="46.61513" lon="5.9072">
        <ele>888</ele>
      </trkpt>
      <trkpt lat="46.61486" lon="5.90725">
        <ele>888</ele>
      </trkpt>
      <trkpt lat="46.61474" lon="5.90729">
        <ele>888</ele>
      </trkpt>
      <trkpt lat="46.61456" lon="5.90741">
        <ele>889</ele>
      </trkpt>
      <trkpt lat="46.61446" lon="5.90725">
        <ele>890</ele>
      </trkpt>
      <trkpt lat="46.6144" lon="5.9071">
        <ele>892</ele>
      </trkpt>
      <trkpt lat="46.61435" lon="5.90689">
        <ele>895</ele>
      </trkpt>
      <trkpt lat="46.6144" lon="5.90656">
        <ele>899</ele>
      </trkpt>
      <trkpt lat="46.61439" lon="5.90643">
        <ele>899</ele>
      </trkpt>
      <trkpt lat="46.61431" lon="5.90627">
        <ele>902</ele>
      </trkpt>
      <trkpt lat="46.61417" lon="5.90623">
        <ele>902</ele>
      </trkpt>
      <trkpt lat="46.61396" lon="5.90627">
        <ele>903</ele>
      </trkpt>
      <trkpt lat="46.61363" lon="5.90643">
        <ele>900</ele>
      </trkpt>
      <trkpt lat="46.6132" lon="5.90655">
        <ele>897</ele>
      </trkpt>
      <trkpt lat="46.6131" lon="5.90652">
        <ele>897</ele>
      </trkpt>
      <trkpt lat="46.61305" lon="5.90649">
        <ele>897</ele>
      </trkpt>
      <trkpt lat="46.61278" lon="5.9062">
        <ele>899</ele>
      </trkpt>
      <trkpt lat="46.61275" lon="5.90611">
        <ele>899</ele>
      </trkpt>
      <trkpt lat="46.61262" lon="5.90608">
        <ele>900</ele>
      </trkpt>
      <trkpt lat="46.61185" lon="5.90533">
        <ele>903</ele>
      </trkpt>
      <trkpt lat="46.61162" lon="5.90514">
        <ele>904</ele>
      </trkpt>
      <trkpt lat="46.61141" lon="5.905">
        <ele>905</ele>
      </trkpt>
      <trkpt lat="46.61116" lon="5.90475">
        <ele>907</ele>
      </trkpt>
      <trkpt lat="46.61097" lon="5.90462">
        <ele>908</ele>
      </trkpt>
      <trkpt lat="46.61085" lon="5.90457">
        <ele>907</ele>
      </trkpt>
      <trkpt lat="46.61067" lon="5.90454">
        <ele>904</ele>
      </trkpt>
      <trkpt lat="46.61023" lon="5.90461">
        <ele>901</ele>
      </trkpt>
    </trkseg>
  </trk>
</gpx>
