<?xml version="1.0" encoding="UTF-8"?>
<gpx xmlns="http://www.topografix.com/GPX/1/1" version="1.1">
  <trk>
    <name>39004 - LACS ILAY + MACLU + NARLAY</name>
    <trkseg>
      <trkpt lat="46.61023" lon="5.90461">
        <ele>901</ele>
      </trkpt>
      <trkpt lat="46.61049" lon="5.90446">
        <ele>903</ele>
      </trkpt>
      <trkpt lat="46.61092" lon="5.90426">
        <ele>911</ele>
      </trkpt>
      <trkpt lat="46.6111" lon="5.90422">
        <ele>915</ele>
      </trkpt>
      <trkpt lat="46.61135" lon="5.90411">
        <ele>921</ele>
      </trkpt>
      <trkpt lat="46.6115" lon="5.90398">
        <ele>922</ele>
      </trkpt>
      <trkpt lat="46.61183" lon="5.90395">
        <ele>923</ele>
      </trkpt>
      <trkpt lat="46.61192" lon="5.9039">
        <ele>923</ele>
      </trkpt>
      <trkpt lat="46.61212" lon="5.90366">
        <ele>926</ele>
      </trkpt>
      <trkpt lat="46.61225" lon="5.90358">
        <ele>929</ele>
      </trkpt>
      <trkpt lat="46.61249" lon="5.90355">
        <ele>929</ele>
      </trkpt>
      <trkpt lat="46.61268" lon="5.90364">
        <ele>928</ele>
      </trkpt>
      <trkpt lat="46.61283" lon="5.90366">
        <ele>928</ele>
      </trkpt>
      <trkpt lat="46.61291" lon="5.9036">
        <ele>929</ele>
      </trkpt>
      <trkpt lat="46.61298" lon="5.90345">
        <ele>936</ele>
      </trkpt>
      <trkpt lat="46.61308" lon="5.90335">
        <ele>937</ele>
      </trkpt>
      <trkpt lat="46.61327" lon="5.90336">
        <ele>941</ele>
      </trkpt>
      <trkpt lat="46.61336" lon="5.90342">
        <ele>941</ele>
      </trkpt>
      <trkpt lat="46.61345" lon="5.90342">
        <ele>942</ele>
      </trkpt>
      <trkpt lat="46.6135" lon="5.90337">
        <ele>942</ele>
      </trkpt>
      <trkpt lat="46.61353" lon="5.90329">
        <ele>948</ele>
      </trkpt>
      <trkpt lat="46.61361" lon="5.90317">
        <ele>949</ele>
      </trkpt>
      <trkpt lat="46.61372" lon="5.90303">
        <ele>951</ele>
      </trkpt>
      <trkpt lat="46.6138" lon="5.90298">
        <ele>959</ele>
      </trkpt>
      <trkpt lat="46.61387" lon="5.90297">
        <ele>960</ele>
      </trkpt>
      <trkpt lat="46.61393" lon="5.90289">
        <ele>962</ele>
      </trkpt>
      <trkpt lat="46.61405" lon="5.90287">
        <ele>962</ele>
      </trkpt>
      <trkpt lat="46.61419" lon="5.90279">
        <ele>968</ele>
      </trkpt>
      <trkpt lat="46.61429" lon="5.90279">
        <ele>969</ele>
      </trkpt>
      <trkpt lat="46.61432" lon="5.90276">
        <ele>970</ele>
      </trkpt>
      <trkpt lat="46.61433" lon="5.90271">
        <ele>969</ele>
      </trkpt>
      <trkpt lat="46.61433" lon="5.90252">
        <ele>968</ele>
      </trkpt>
      <trkpt lat="46.61437" lon="5.90244">
        <ele>968</ele>
      </trkpt>
      <trkpt lat="46.6145" lon="5.90226">
        <ele>968</ele>
      </trkpt>
      <trkpt lat="46.61468" lon="5.90207">
        <ele>962</ele>
      </trkpt>
      <trkpt lat="46.61471" lon="5.90227">
        <ele>973</ele>
      </trkpt>
      <trkpt lat="46.61483" lon="5.90232">
        <ele>974</ele>
      </trkpt>
      <trkpt lat="46.61507" lon="5.9026">
        <ele>985</ele>
      </trkpt>
      <trkpt lat="46.61513" lon="5.9027">
        <ele>985</ele>
      </trkpt>
      <trkpt lat="46.61524" lon="5.90279">
        <ele>988</ele>
      </trkpt>
      <trkpt lat="46.616" lon="5.90384">
        <ele>986</ele>
      </trkpt>
      <trkpt lat="46.61622" lon="5.90411">
        <ele>984</ele>
      </trkpt>
      <trkpt lat="46.61642" lon="5.90429">
        <ele>984</ele>
      </trkpt>
      <trkpt lat="46.61658" lon="5.90437">
        <ele>983</ele>
      </trkpt>
      <trkpt lat="46.61677" lon="5.90453">
        <ele>984</ele>
      </trkpt>
      <trkpt lat="46.61688" lon="5.9048">
        <ele>984</ele>
      </trkpt>
      <trkpt lat="46.61733" lon="5.9051">
        <ele>982</ele>
      </trkpt>
      <trkpt lat="46.61746" lon="5.90522">
        <ele>980</ele>
      </trkpt>
      <trkpt lat="46.61805" lon="5.90607">
        <ele>975</ele>
      </trkpt>
      <trkpt lat="46.61826" lon="5.90632">
        <ele>971</ele>
      </trkpt>
      <trkpt lat="46.61834" lon="5.90649">
        <ele>971</ele>
      </trkpt>
      <trkpt lat="46.6186" lon="5.90697">
        <ele>969</ele>
      </trkpt>
      <trkpt lat="46.61865" lon="5.90719">
        <ele>969</ele>
      </trkpt>
      <trkpt lat="46.61875" lon="5.90746">
        <ele>970</ele>
      </trkpt>
      <trkpt lat="46.61878" lon="5.90771">
        <ele>970</ele>
      </trkpt>
      <trkpt lat="46.61879" lon="5.90815">
        <ele>971</ele>
      </trkpt>
      <trkpt lat="46.61882" lon="5.90829">
        <ele>971</ele>
      </trkpt>
      <trkpt lat="46.61891" lon="5.90841">
        <ele>971</ele>
      </trkpt>
      <trkpt lat="46.61898" lon="5.90859">
        <ele>969</ele>
      </trkpt>
      <trkpt lat="46.61908" lon="5.90875">
        <ele>969</ele>
      </trkpt>
      <trkpt lat="46.61933" lon="5.90901">
        <ele>964</ele>
      </trkpt>
      <trkpt lat="46.61952" lon="5.90925">
        <ele>958</ele>
      </trkpt>
      <trkpt lat="46.61963" lon="5.90959">
        <ele>953</ele>
      </trkpt>
      <trkpt lat="46.6198" lon="5.90955">
        <ele>953</ele>
      </trkpt>
      <trkpt lat="46.61986" lon="5.90965">
        <ele>952</ele>
      </trkpt>
      <trkpt lat="46.62" lon="5.90974">
        <ele>950</ele>
      </trkpt>
      <trkpt lat="46.62017" lon="5.9098">
        <ele>950</ele>
      </trkpt>
      <trkpt lat="46.62052" lon="5.90967">
        <ele>950</ele>
      </trkpt>
      <trkpt lat="46.62071" lon="5.90955">
        <ele>949</ele>
      </trkpt>
      <trkpt lat="46.62091" lon="5.90936">
        <ele>946</ele>
      </trkpt>
      <trkpt lat="46.62144" lon="5.90887">
        <ele>931</ele>
      </trkpt>
      <trkpt lat="46.62185" lon="5.90889">
        <ele>921</ele>
      </trkpt>
      <trkpt lat="46.62207" lon="5.90886">
        <ele>913</ele>
      </trkpt>
      <trkpt lat="46.62221" lon="5.90898">
        <ele>913</ele>
      </trkpt>
      <trkpt lat="46.62227" lon="5.90917">
        <ele>921</ele>
      </trkpt>
      <trkpt lat="46.62235" lon="5.90952">
        <ele>929</ele>
      </trkpt>
      <trkpt lat="46.62247" lon="5.90955">
        <ele>923</ele>
      </trkpt>
      <trkpt lat="46.62262" lon="5.90954">
        <ele>921</ele>
      </trkpt>
      <trkpt lat="46.62305" lon="5.90985">
        <ele>917</ele>
      </trkpt>
      <trkpt lat="46.62322" lon="5.9099">
        <ele>914</ele>
      </trkpt>
      <trkpt lat="46.62341" lon="5.90992">
        <ele>904</ele>
      </trkpt>
      <trkpt lat="46.62353" lon="5.90979">
        <ele>891</ele>
      </trkpt>
      <trkpt lat="46.62355" lon="5.90979">
        <ele>891</ele>
      </trkpt>
      <trkpt lat="46.62361" lon="5.90981">
        <ele>892</ele>
      </trkpt>
      <trkpt lat="46.62366" lon="5.90996">
        <ele>893</ele>
      </trkpt>
      <trkpt lat="46.62388" lon="5.91034">
        <ele>907</ele>
      </trkpt>
      <trkpt lat="46.62405" lon="5.91055">
        <ele>915</ele>
      </trkpt>
      <trkpt lat="46.6242" lon="5.91066">
        <ele>907</ele>
      </trkpt>
      <trkpt lat="46.62436" lon="5.91081">
        <ele>905</ele>
      </trkpt>
      <trkpt lat="46.62459" lon="5.91088">
        <ele>900</ele>
      </trkpt>
      <trkpt lat="46.62472" lon="5.91113">
        <ele>897</ele>
      </trkpt>
      <trkpt lat="46.62489" lon="5.91138">
        <ele>905</ele>
      </trkpt>
      <trkpt lat="46.62531" lon="5.91191">
        <ele>880</ele>
      </trkpt>
      <trkpt lat="46.62541" lon="5.91214">
        <ele>888</ele>
      </trkpt>
      <trkpt lat="46.62543" lon="5.9123">
        <ele>899</ele>
      </trkpt>
      <trkpt lat="46.62564" lon="5.91262">
        <ele>897</ele>
      </trkpt>
      <trkpt lat="46.62618" lon="5.9131">
        <ele>882</ele>
      </trkpt>
      <trkpt lat="46.62611" lon="5.91334">
        <ele>899</ele>
      </trkpt>
      <trkpt lat="46.62611" lon="5.91351">
        <ele>903</ele>
      </trkpt>
      <trkpt lat="46.62614" lon="5.9138">
        <ele>917</ele>
      </trkpt>
      <trkpt lat="46.62613" lon="5.91396">
        <ele>925</ele>
      </trkpt>
      <trkpt lat="46.62605" lon="5.91418">
        <ele>930</ele>
      </trkpt>
      <trkpt lat="46.626" lon="5.91433">
        <ele>933</ele>
      </trkpt>
      <trkpt lat="46.6259" lon="5.91445">
        <ele>935</ele>
      </trkpt>
      <trkpt lat="46.62554" lon="5.91468">
        <ele>938</ele>
      </trkpt>
      <trkpt lat="46.62549" lon="5.91475">
        <ele>939</ele>
      </trkpt>
      <trkpt lat="46.62539" lon="5.91479">
        <ele>940</ele>
      </trkpt>
      <trkpt lat="46.62522" lon="5.91464">
        <ele>939</ele>
      </trkpt>
      <trkpt lat="46.62497" lon="5.91407">
        <ele>937</ele>
      </trkpt>
      <trkpt lat="46.62481" lon="5.91382">
        <ele>937</ele>
      </trkpt>
      <trkpt lat="46.62461" lon="5.91365">
        <ele>938</ele>
      </trkpt>
      <trkpt lat="46.62445" lon="5.9136">
        <ele>938</ele>
      </trkpt>
      <trkpt lat="46.62401" lon="5.91355">
        <ele>942</ele>
      </trkpt>
      <trkpt lat="46.62396" lon="5.91347">
        <ele>942</ele>
      </trkpt>
      <trkpt lat="46.62396" lon="5.91334">
        <ele>943</ele>
      </trkpt>
      <trkpt lat="46.62398" lon="5.91323">
        <ele>943</ele>
      </trkpt>
      <trkpt lat="46.62417" lon="5.91272">
        <ele>937</ele>
      </trkpt>
      <trkpt lat="46.62437" lon="5.91202">
        <ele>932</ele>
      </trkpt>
      <trkpt lat="46.62439" lon="5.91146">
        <ele>926</ele>
      </trkpt>
      <trkpt lat="46.62438" lon="5.91126">
        <ele>919</ele>
      </trkpt>
      <trkpt lat="46.62436" lon="5.91116">
        <ele>919</ele>
      </trkpt>
      <trkpt lat="46.62422" lon="5.91104">
        <ele>921</ele>
      </trkpt>
      <trkpt lat="46.624" lon="5.91102">
        <ele>929</ele>
      </trkpt>
      <trkpt lat="46.62376" lon="5.91096">
        <ele>936</ele>
      </trkpt>
      <trkpt lat="46.62365" lon="5.91091">
        <ele>937</ele>
      </trkpt>
      <trkpt lat="46.62359" lon="5.91086">
        <ele>937</ele>
      </trkpt>
      <trkpt lat="46.62335" lon="5.91033">
        <ele>930</ele>
      </trkpt>
      <trkpt lat="46.62326" lon="5.91022">
        <ele>922</ele>
      </trkpt>
      <trkpt lat="46.62312" lon="5.91016">
        <ele>928</ele>
      </trkpt>
      <trkpt lat="46.62294" lon="5.91016">
        <ele>933</ele>
      </trkpt>
      <trkpt lat="46.62282" lon="5.91018">
        <ele>934</ele>
      </trkpt>
      <trkpt lat="46.62238" lon="5.91051">
        <ele>943</ele>
      </trkpt>
      <trkpt lat="46.62224" lon="5.91057">
        <ele>946</ele>
      </trkpt>
      <trkpt lat="46.62122" lon="5.91081">
        <ele>956</ele>
      </trkpt>
      <trkpt lat="46.62086" lon="5.91072">
        <ele>952</ele>
      </trkpt>
      <trkpt lat="46.62061" lon="5.91074">
        <ele>949</ele>
      </trkpt>
      <trkpt lat="46.62038" lon="5.91095">
        <ele>946</ele>
      </trkpt>
      <trkpt lat="46.61999" lon="5.9112">
        <ele>941</ele>
      </trkpt>
      <trkpt lat="46.61984" lon="5.91122">
        <ele>938</ele>
      </trkpt>
      <trkpt lat="46.61975" lon="5.91119">
        <ele>938</ele>
      </trkpt>
      <trkpt lat="46.61965" lon="5.91109">
        <ele>937</ele>
      </trkpt>
      <trkpt lat="46.61928" lon="5.91069">
        <ele>935</ele>
      </trkpt>
      <trkpt lat="46.61837" lon="5.90998">
        <ele>923</ele>
      </trkpt>
      <trkpt lat="46.61802" lon="5.90957">
        <ele>926</ele>
      </trkpt>
      <trkpt lat="46.6177" lon="5.90908">
        <ele>926</ele>
      </trkpt>
      <trkpt lat="46.61749" lon="5.90871">
        <ele>922</ele>
      </trkpt>
      <trkpt lat="46.61721" lon="5.90814">
        <ele>920</ele>
      </trkpt>
      <trkpt lat="46.61699" lon="5.90789">
        <ele>916</ele>
      </trkpt>
      <trkpt lat="46.61681" lon="5.90765">
        <ele>914</ele>
      </trkpt>
      <trkpt lat="46.61641" lon="5.90726">
        <ele>913</ele>
      </trkpt>
      <trkpt lat="46.61616" lon="5.90714">
        <ele>909</ele>
      </trkpt>
      <trkpt lat="46.61592" lon="5.9071">
        <ele>900</ele>
      </trkpt>
      <trkpt lat="46.61513" lon="5.9072">
        <ele>888</ele>
      </trkpt>
      <trkpt lat="46.61486" lon="5.90725">
        <ele>888</ele>
      </trkpt>
      <trkpt lat="46.61474" lon="5.90729">
        <ele>888</ele>
      </trkpt>
      <trkpt lat="46.61456" lon="5.90741">
        <ele>889</ele>
      </trkpt>
      <trkpt lat="46.61446" lon="5.90725">
        <ele>890</ele>
      </trkpt>
      <trkpt lat="46.6144" lon="5.9071">
        <ele>892</ele>
      </trkpt>
      <trkpt lat="46.61435" lon="5.90689">
        <ele>895</ele>
      </trkpt>
      <trkpt lat="46.6144" lon="5.90656">
        <ele>899</ele>
      </trkpt>
      <trkpt lat="46.61439" lon="5.90643">
        <ele>899</ele>
      </trkpt>
      <trkpt lat="46.61431" lon="5.90627">
        <ele>902</ele>
      </trkpt>
      <trkpt lat="46.61417" lon="5.90623">
        <ele>902</ele>
      </trkpt>
      <trkpt lat="46.61396" lon="5.90627">
        <ele>903</ele>
      </trkpt>
      <trkpt lat="46.61363" lon="5.90643">
        <ele>900</ele>
      </trkpt>
      <trkpt lat="46.6132" lon="5.90655">
        <ele>897</ele>
      </trkpt>
      <trkpt lat="46.6131" lon="5.90652">
        <ele>897</ele>
      </trkpt>
      <trkpt lat="46.61305" lon="5.90649">
        <ele>897</ele>
      </trkpt>
      <trkpt lat="46.61278" lon="5.9062">
        <ele>899</ele>
      </trkpt>
      <trkpt lat="46.61275" lon="5.90611">
        <ele>899</ele>
      </trkpt>
      <trkpt lat="46.61262" lon="5.90608">
        <ele>900</ele>
      </trkpt>
      <trkpt lat="46.61185" lon="5.90533">
        <ele>903</ele>
      </trkpt>
      <trkpt lat="46.61162" lon="5.90514">
        <ele>904</ele>
      </trkpt>
      <trkpt lat="46.61141" lon="5.905">
        <ele>905</ele>
      </trkpt>
      <trkpt lat="46.61116" lon="5.90475">
        <ele>907</ele>
      </trkpt>
      <trkpt lat="46.61097" lon="5.90462">
        <ele>908</ele>
      </trkpt>
      <trkpt lat="46.61085" lon="5.90457">
        <ele>907</ele>
      </trkpt>
      <trkpt lat="46.61067" lon="5.90454">
        <ele>904</ele>
      </trkpt>
      <trkpt lat="46.61023" lon="5.90461">
        <ele>901</ele>
      </trkpt>
    </trkseg>
  </trk>
</gpx>
