<?xml version="1.0" encoding="UTF-8"?>
<gpx xmlns="http://www.topografix.com/GPX/1/1" version="1.1">
  <trk>
    <name>39008 - LAC ABBAYE</name>
    <desc></desc>
    <trkseg>
      <trkpt lat="46.52063" lon="5.91297">
        <ele>1003</ele>
      </trkpt>
      <trkpt lat="46.52063" lon="5.91308">
        <ele>1005</ele>
      </trkpt>
      <trkpt lat="46.52056" lon="5.91352">
        <ele>1008</ele>
      </trkpt>
      <trkpt lat="46.52086" lon="5.91411">
        <ele>1011</ele>
      </trkpt>
      <trkpt lat="46.52144" lon="5.91452">
        <ele>1008</ele>
      </trkpt>
      <trkpt lat="46.52171" lon="5.91488">
        <ele>1005</ele>
      </trkpt>
      <trkpt lat="46.52204" lon="5.91547">
        <ele>1010</ele>
      </trkpt>
      <trkpt lat="46.52251" lon="5.91617">
        <ele>1019</ele>
      </trkpt>
      <trkpt lat="46.5235" lon="5.91746">
        <ele>1020</ele>
      </trkpt>
      <trkpt lat="46.52461" lon="5.91881">
        <ele>1021</ele>
      </trkpt>
      <trkpt lat="46.52518" lon="5.91962">
        <ele>1021</ele>
      </trkpt>
      <trkpt lat="46.5255" lon="5.92057">
        <ele>1028</ele>
      </trkpt>
      <trkpt lat="46.52571" lon="5.92165">
        <ele>1037</ele>
      </trkpt>
      <trkpt lat="46.52629" lon="5.92314">
        <ele>1041</ele>
      </trkpt>
      <trkpt lat="46.52682" lon="5.92391">
        <ele>1043</ele>
      </trkpt>
      <trkpt lat="46.52695" lon="5.92361">
        <ele>1040</ele>
      </trkpt>
      <trkpt lat="46.52708" lon="5.92344">
        <ele>1038</ele>
      </trkpt>
      <trkpt lat="46.52719" lon="5.92335">
        <ele>1036</ele>
      </trkpt>
      <trkpt lat="46.52729" lon="5.9233">
        <ele>1035</ele>
      </trkpt>
      <trkpt lat="46.52759" lon="5.92321">
        <ele>1034</ele>
      </trkpt>
      <trkpt lat="46.52795" lon="5.9231">
        <ele>1028</ele>
      </trkpt>
      <trkpt lat="46.52809" lon="5.92301">
        <ele>1026</ele>
      </trkpt>
      <trkpt lat="46.52817" lon="5.9229">
        <ele>1025</ele>
      </trkpt>
      <trkpt lat="46.52819" lon="5.92272">
        <ele>1023</ele>
      </trkpt>
      <trkpt lat="46.52818" lon="5.92253">
        <ele>1022</ele>
      </trkpt>
      <trkpt lat="46.52813" lon="5.92244">
        <ele>1021</ele>
      </trkpt>
      <trkpt lat="46.52806" lon="5.92239">
        <ele>1021</ele>
      </trkpt>
      <trkpt lat="46.52771" lon="5.92225">
        <ele>1022</ele>
      </trkpt>
      <trkpt lat="46.52746" lon="5.92218">
        <ele>1021</ele>
      </trkpt>
      <trkpt lat="46.52732" lon="5.92202">
        <ele>1021</ele>
      </trkpt>
      <trkpt lat="46.52717" lon="5.9218">
        <ele>1018</ele>
      </trkpt>
      <trkpt lat="46.52695" lon="5.92136">
        <ele>1016</ele>
      </trkpt>
      <trkpt lat="46.52688" lon="5.92114">
        <ele>1015</ele>
      </trkpt>
      <trkpt lat="46.52683" lon="5.92092">
        <ele>1013</ele>
      </trkpt>
      <trkpt lat="46.52674" lon="5.92067">
        <ele>1013</ele>
      </trkpt>
      <trkpt lat="46.52668" lon="5.92055">
        <ele>1012</ele>
      </trkpt>
      <trkpt lat="46.52632" lon="5.91989">
        <ele>1004</ele>
      </trkpt>
      <trkpt lat="46.52616" lon="5.91955">
        <ele>1005</ele>
      </trkpt>
      <trkpt lat="46.52572" lon="5.91868">
        <ele>1002</ele>
      </trkpt>
      <trkpt lat="46.52559" lon="5.91833">
        <ele>1001</ele>
      </trkpt>
      <trkpt lat="46.52544" lon="5.91775">
        <ele>993</ele>
      </trkpt>
      <trkpt lat="46.52529" lon="5.91731">
        <ele>992</ele>
      </trkpt>
      <trkpt lat="46.52514" lon="5.91692">
        <ele>989</ele>
      </trkpt>
      <trkpt lat="46.52495" lon="5.91657">
        <ele>984</ele>
      </trkpt>
      <trkpt lat="46.52456" lon="5.91598">
        <ele>980</ele>
      </trkpt>
      <trkpt lat="46.52419" lon="5.91546">
        <ele>974</ele>
      </trkpt>
      <trkpt lat="46.52393" lon="5.91518">
        <ele>970</ele>
      </trkpt>
      <trkpt lat="46.52326" lon="5.91457">
        <ele>964</ele>
      </trkpt>
      <trkpt lat="46.52275" lon="5.91401">
        <ele>966</ele>
      </trkpt>
      <trkpt lat="46.52248" lon="5.91365">
        <ele>964</ele>
      </trkpt>
      <trkpt lat="46.52227" lon="5.91319">
        <ele>957</ele>
      </trkpt>
      <trkpt lat="46.52216" lon="5.91287">
        <ele>954</ele>
      </trkpt>
      <trkpt lat="46.5221" lon="5.91253">
        <ele>952</ele>
      </trkpt>
      <trkpt lat="46.52206" lon="5.91189">
        <ele>949</ele>
      </trkpt>
      <trkpt lat="46.522" lon="5.91168">
        <ele>949</ele>
      </trkpt>
      <trkpt lat="46.52185" lon="5.91141">
        <ele>949</ele>
      </trkpt>
      <trkpt lat="46.52181" lon="5.91148">
        <ele>955</ele>
      </trkpt>
      <trkpt lat="46.52178" lon="5.91147">
        <ele>955</ele>
      </trkpt>
      <trkpt lat="46.5216" lon="5.91127">
        <ele>955</ele>
      </trkpt>
      <trkpt lat="46.52156" lon="5.91127">
        <ele>956</ele>
      </trkpt>
      <trkpt lat="46.52072" lon="5.91251">
        <ele>992</ele>
      </trkpt>
      <trkpt lat="46.52062" lon="5.9126">
        <ele>1000</ele>
      </trkpt>
      <trkpt lat="46.52064" lon="5.9128">
        <ele>1002</ele>
      </trkpt>
      <trkpt lat="46.52064" lon="5.91292">
        <ele>1003</ele>
      </trkpt>
    </trkseg>
  </trk>
</gpx>
